OBJECT_NAME,OBJECT_ID,EPOCH,MEAN_MOTION,ECCENTRICITY,INCLINATION,RA_OF_ASC_NODE,ARG_OF_PERICENTER,MEAN_ANOMALY,EPHEMERIS_TYPE,CLASSIFICATION_TYPE,NORAD_CAT_ID,ELEMENT_SET_NO,REV_AT_EPOCH,BSTAR,MEAN_MOTION_DOT,MEAN_MOTION_DDOT
BADR-5,2010-025A,2026-07-18T16:47:26.647872,1.00272672,.0005307,0.0563,111.9488,82.8995,23.9624,0,U,36592,999,5353,0,.147E-5,0
COMS 1,2010-032A,2026-07-18T11:16:20.531712,0.99167179,.00113427,4.8838,74.9794,15.0293,324.3937,0,U,36744,999,5139,0,-.226E-5,0
ARABSAT-5A,2010-032B,2026-07-18T18:26:38.635872,1.00268984,.000538,0.1191,67.9552,55.3246,120.4530,0,U,36745,999,5896,0,.147E-5,0
ECHOSTAR 15,2010-034A,2026-07-18T14:08:34.979136,1.00272975,.0001909,0.0408,259.3459,201.0820,289.2994,0,U,36792,999,5863,0,-.8E-7,0
BEIDOU-2 IGSO-1,2010-036A,2026-07-17T20:09:07.585632,1.00263080,.00588528,54.3070,162.6827,225.1686,317.0611,0,U,36828,999,5840,0,-.112E-5,0
NILESAT 201,2010-037A,2026-07-18T18:58:38.631360,1.00270618,.0004915,0.0382,209.7523,283.9621,80.5372,0,U,36830,999,5869,0,-.64E-6,0
RASCOM-QAF 1R,2010-037B,2026-07-18T18:58:38.631360,1.00271332,.0006168,0.0127,70.6738,37.5371,115.9305,0,U,36831,999,5862,0,.12E-6,0
AEHF-1 (USA 214),2010-039A,2026-07-18T17:47:23.922240,1.00276726,.0003885,8.2970,67.6352,37.4772,128.2818,0,U,36868,999,5397,0,.138E-5,0
XM-5,2010-053A,2026-07-18T07:32:40.479360,1.00272616,.00014056,0.0601,263.6204,320.7264,69.7395,0,U,37185,999,5779,0,-.31E-6,0
BSAT-3B,2010-056B,2026-07-18T20:39:10.548000,1.00272150,.0002712,0.0664,243.3588,294.4543,178.4763,0,U,37207,999,5241,0,-.356E-5,0
BEIDOU-2 G4,2010-057A,2026-07-18T14:53:07.848672,1.00272564,.0005544,3.7234,68.7521,185.6049,65.2733,0,U,37210,999,5760,0,-.121E-5,0
SKYTERRA 1,2010-061A,2026-07-18T13:59:38.658048,1.00271858,.0002631,5.1903,50.8040,26.5848,327.5674,0,U,37218,999,5750,0,-.127E-5,0
HYLAS 1,2010-065A,2026-07-18T20:08:51.558432,1.00643175,.0001176,5.7218,72.6277,140.5577,62.8883,0,U,37237,999,720,0,.119E-5,0
INTELSAT 17 (IS-17),2010-065B,2026-07-18T18:52:21.848736,1.00272510,.000256,0.0071,89.8196,39.4454,156.4053,0,U,37238,999,5356,0,-.8E-7,0
BEIDOU-2 IGSO-2,2010-068A,2026-07-17T22:09:02.283840,1.00272861,.00569562,47.4899,271.4483,213.9138,250.9288,0,U,37256,999,5710,0,-.202E-5,0
EUTELSAT KA-SAT 9A,2010-069A,2026-07-18T18:50:38.706144,1.00271803,.0004563,0.0614,5.4279,141.1246,81.6754,0,U,37258,999,4432,0,.55E-6,0
HISPASAT 30W-5,2010-070A,2026-07-18T18:12:52.179264,1.00269971,.0005766,0.0357,107.2967,21.2934,51.1620,0,U,37264,999,5350,0,-.223E-5,0
KOREASAT 6,2010-070B,2026-07-18T17:24:26.821152,1.00271332,.0002673,0.0167,77.5107,52.3281,227.6832,0,U,37265,999,5708,0,-.118E-5,0
BEIDOU-2 IGSO-3,2011-013A,2026-07-18T12:00:41.338944,1.00260006,.00355629,62.4507,39.8549,183.4443,359.4682,0,U,37384,999,5597,0,-.175E-5,0
INTELSAT 28 (IS-28),2011-016A,2026-07-18T18:12:29.715264,1.00271758,.000383,1.8860,82.2414,41.3673,54.3625,0,U,37392,999,5360,0,-.232E-5,0
YAHSAT 1A,2011-016B,2026-07-18T13:28:32.913984,1.00269447,.0003237,0.0189,68.8006,45.6337,76.5807,0,U,37393,999,4272,0,0,0
SBIRS GEO-1 (USA 230),2011-019A,2026-07-17T23:48:56.844576,1.00272690,.00018957,4.6021,53.0944,58.0226,233.7271,0,U,37481,999,5570,0,.89E-6,0
TELSTAR 14R,2011-021A,2026-07-18T12:50:59.017056,0.98982458,.0008085,0.0921,84.7377,293.3412,32.0505,0,U,37602,999,5614,0,-.8E-6,0
GSAT-8,2011-022A,2026-07-18T20:31:25.358304,1.00271355,.0002486,2.2112,81.4381,156.5679,61.5854,0,U,37605,999,5353,0,.77E-6,0
ST-2,2011-022B,2026-07-18T18:38:38.626944,1.00271403,.0001682,0.0190,84.9153,48.8973,170.4414,0,U,37606,999,5559,0,-.218E-5,0
ZHONGXING-10,2011-026A,2026-07-18T23:12:38.634048,1.00272342,.0003509,1.1275,83.8414,23.0781,263.4966,0,U,37677,999,5531,0,-.195E-5,0
SES-3,2011-035A,2026-07-18T13:59:38.658048,1.00271687,.0002094,1.4060,82.7413,34.7091,285.8525,0,U,37748,999,5490,0,-.11E-5,0
KAZSAT-2,2011-035B,2026-07-18T08:30:12.464352,1.00272704,.00020004,0.0272,112.3557,58.6502,339.2147,0,U,37749,999,5371,0,-.206E-5,0
BEIDOU-2 IGSO-4,2011-038A,2026-07-18T20:40:43.128192,1.00278571,.0160238,54.6051,165.3909,231.4788,304.3437,0,U,37763,999,5496,0,-.26E-6,0
ASTRA 1N,2011-041A,2026-07-18T19:58:52.521312,1.00271636,.0005905,0.0632,17.7336,98.2766,139.5069,0,U,37775,999,4484,0,.113E-5,0
BSAT-3C (JCSAT-110R),2011-041B,2026-07-18T20:39:09.925920,1.00272388,.0000193,0.0320,308.8378,245.0572,162.5033,0,U,37776,999,5078,0,-.357E-5,0
PAKSAT-1R,2011-042A,2026-07-18T20:10:47.877024,1.00270793,.0003155,0.7692,84.3023,353.4619,199.5249,0,U,37779,999,5479,0,.147E-5,0
