BADR-5                  
1 36592U 10025A   26199.69961398  .00000147  00000+0  00000+0 0  9991
2 36592   0.0563 111.9488 0005307  82.8995  23.9624  1.00272672 53538
COMS 1                  
1 36744U 10032A   26199.46968208 -.00000226  00000+0  00000+0 0  9999
2 36744   4.8838  74.9794 0011342  15.0293 324.3937  0.99167179 51396
ARABSAT-5A              
1 36745U 10032B   26199.76850273  .00000147  00000+0  00000+0 0  9996
2 36745   0.1191  67.9552 0005380  55.3246 120.4530  1.00268984 58965
ECHOSTAR 15             
1 36792U 10034A   26199.58929374 -.00000008  00000+0  00000+0 0  9996
2 36792   0.0408 259.3459 0001909 201.0820 289.2994  1.00272975 58638
BEIDOU-2 IGSO-1         
1 36828U 10036A   26198.83967113 -.00000112  00000+0  00000+0 0  9994
2 36828  54.3070 162.6827 0058852 225.1686 317.0611  1.00263080 58404
NILESAT 201             
1 36830U 10037A   26199.79072490 -.00000064  00000+0  00000+0 0  9995
2 36830   0.0382 209.7523 0004915 283.9621  80.5372  1.00270618 58691
RASCOM-QAF 1R           
1 36831U 10037B   26199.79072490  .00000012  00000+0  00000+0 0  9998
2 36831   0.0127  70.6738 0006168  37.5371 115.9305  1.00271332 58625
AEHF-1 (USA 214)        
1 36868U 10039A   26199.74124910  .00000138  00000+0  00000+0 0  9999
2 36868   8.2970  67.6352 0003885  37.4772 128.2818  1.00276726 53977
XM-5                    
1 37185U 10053A   26199.31435740 -.00000031  00000+0  00000+0 0  9990
2 37185   0.0601 263.6204 0001405 320.7264  69.7395  1.00272616 57792
BSAT-3B                 
1 37207U 10056B   26199.86053875 -.00000356  00000+0  00000+0 0  9993
2 37207   0.0664 243.3588 0002712 294.4543 178.4763  1.00272150 52419
BEIDOU-2 G4             
1 37210U 10057A   26199.62022973 -.00000121  00000+0  00000+0 0  9997
2 37210   3.7234  68.7521 0005544 185.6049  65.2733  1.00272564 57605
SKYTERRA 1              
1 37218U 10061A   26199.58308632 -.00000127  00000+0  00000+0 0  9990
2 37218   5.1903  50.8040 0002631  26.5848 327.5674  1.00271858 57506
HYLAS 1                 
1 37237U 10065A   26199.83948563  .00000119  00000+0  00000+0 0  9996
2 37237   5.7218  72.6277 0001176 140.5577  62.8883  1.00643175  7203
INTELSAT 17 (IS-17)     
1 37238U 10065B   26199.78636399 -.00000008  00000+0  00000+0 0  9990
2 37238   0.0071  89.8196 0002560  39.4454 156.4053  1.00272510 53567
BEIDOU-2 IGSO-2         
1 37256U 10068A   26198.92294310 -.00000202  00000+0  00000+0 0  9997
2 37256  47.4899 271.4483 0056956 213.9138 250.9288  1.00272861 57107
EUTELSAT KA-SAT 9A      
1 37258U 10069A   26199.78517021  .00000055  00000+0  00000+0 0  9997
2 37258   0.0614   5.4279 0004563 141.1246  81.6754  1.00271803 44328
HISPASAT 30W-5          
1 37264U 10070A   26199.75893726 -.00000223  00000+0  00000+0 0  9990
2 37264   0.0357 107.2967 0005766  21.2934  51.1620  1.00269971 53509
KOREASAT 6              
1 37265U 10070B   26199.72531043 -.00000118  00000+0  00000+0 0  9992
2 37265   0.0167  77.5107 0002673  52.3281 227.6832  1.00271332 57084
BEIDOU-2 IGSO-3         
1 37384U 11013A   26199.50047846 -.00000175  00000+0  00000+0 0  9994
2 37384  62.4507  39.8549 0035562 183.4443 359.4682  1.00260006 55975
INTELSAT 28 (IS-28)     
1 37392U 11016A   26199.75867726 -.00000232  00000+0  00000+0 0  9994
2 37392   1.8860  82.2414 0003830  41.3673  54.3625  1.00271758 53608
YAHSAT 1A               
1 37393U 11016B   26199.56149206  .00000000  00000+0  00000+0 0  9992
2 37393   0.0189  68.8006 0003237  45.6337  76.5807  1.00269447 42727
SBIRS GEO-1 (USA 230)   
1 37481U 11019A   26198.99232459  .00000089  00000+0  00000+0 0  9999
2 37481   4.6021  53.0944 0001895  58.0226 233.7271  1.00272690 55708
TELSTAR 14R             
1 37602U 11021A   26199.53540529 -.00000080  00000+0  00000+0 0  9990
2 37602   0.0921  84.7377 0008085 293.3412  32.0505  0.98982458 56147
GSAT-8                  
1 37605U 11022A   26199.85515461  .00000077  00000+0  00000+0 0  9991
2 37605   2.2112  81.4381 0002486 156.5679  61.5854  1.00271355 53534
ST-2                    
1 37606U 11022B   26199.77683596 -.00000218  00000+0  00000+0 0  9996
2 37606   0.0190  84.9153 0001682  48.8973 170.4414  1.00271403 55593
ZHONGXING-10            
1 37677U 11026A   26199.96711382 -.00000195  00000+0  00000+0 0  9998
2 37677   1.1275  83.8414 0003509  23.0781 263.4966  1.00272342 55315
SES-3                   
1 37748U 11035A   26199.58308632 -.00000110  00000+0  00000+0 0  9992
2 37748   1.4060  82.7413 0002094  34.7091 285.8525  1.00271687 54901
KAZSAT-2                
1 37749U 11035B   26199.35431093 -.00000206  00000+0  00000+0 0  9992
2 37749   0.0272 112.3557 0002000  58.6502 339.2147  1.00272704 53713
BEIDOU-2 IGSO-4         
1 37763U 11038A   26199.86161028 -.00000026  00000+0  00000+0 0  9995
2 37763  54.6051 165.3909 0160238 231.4788 304.3437  1.00278571 54964
ASTRA 1N                
1 37775U 11041A   26199.83255233  .00000113  00000+0  00000+0 0  9997
2 37775   0.0632  17.7336 0005905  98.2766 139.5069  1.00271636 44845
BSAT-3C (JCSAT-110R)    
1 37776U 11041B   26199.86053155 -.00000357  00000+0  00000+0 0  9991
2 37776   0.0320 308.8378 0000193 245.0572 162.5033  1.00272388 50783
PAKSAT-1R               
1 37779U 11042A   26199.84083191  .00000147  00000+0  00000+0 0  9992
2 37779   0.7692  84.3023 0003155 353.4619 199.5249  1.00270793 54797
